OBJECT_NAME,OBJECT_ID,EPOCH,MEAN_MOTION,ECCENTRICITY,INCLINATION,RA_OF_ASC_NODE,ARG_OF_PERICENTER,MEAN_ANOMALY,EPHEMERIS_TYPE,CLASSIFICATION_TYPE,NORAD_CAT_ID,ELEMENT_SET_NO,REV_AT_EPOCH,BSTAR,MEAN_MOTION_DOT,MEAN_MOTION_DDOT
STARLINK-1333,2020-025BB,2024-07-07T17:33:44.483904,15.06421186,.0001396,53.0559,304.8256,87.4598,272.6551,0,U,45580,999,23284,.10929E-2,.16044E-3,0
STARLINK-1335,2020-025BC,2024-07-07T06:31:35.798304,15.06406375,.0001291,53.0552,296.8892,90.8899,269.2238,0,U,45581,999,23350,.96248E-3,.14086E-3,0
STARLINK-1337,2020-025BD,2024-07-07T07:03:27.215136,15.06407879,.0001399,53.0547,296.7919,85.7170,274.3979,0,U,45582,999,23350,.10769E-2,.15799E-3,0
STARLINK-1340,2020-025BE,2024-07-07T14:00:01.000224,15.84289070,.0010358,53.0428,247.1200,7.1413,166.3434,0,U,45583,999,23362,.80716E-3,.19109E-2,0
STARLINK-1347,2020-025BH,2024-07-07T00:30:40.655232,15.06396275,.0001294,53.0555,298.0166,89.8364,270.2773,0,U,45586,999,23345,.85517E-3,.12478E-3,0
STARLINK-1349,2020-025BJ,2024-07-07T14:08:03.643584,15.06411215,.0001456,53.0558,295.4650,93.3725,266.7431,0,U,45587,999,23355,.95672E-3,.14002E-3,0
STARLINK-1360,2020-025BK,2024-07-07T07:14:04.917120,15.06413883,.0001358,53.0554,296.7673,85.0094,275.1050,0,U,45588,999,23350,.15348E-2,.22662E-3,0
STARLINK-1364,2020-025BL,2024-07-07T00:46:35.884992,15.06403103,.0001285,53.0547,297.9663,84.2047,275.9088,0,U,45589,999,23346,.95345E-3,.1395E-3,0
STARLINK-1365,2020-025BM,2024-07-07T15:29:00.643776,15.06411697,.0001432,53.0567,325.2149,83.2394,276.8758,0,U,45590,999,23254,.72419E-3,.10525E-3,0
STARLINK-1441,2020-035B,2024-07-07T22:00:00.999936,15.84313394,.0009741,53.0445,225.3355,9.5135,205.5244,0,U,45658,999,22724,.83836E-3,.198821E-2,0
STARLINK-1443,2020-035D,2024-07-07T10:21:09.710496,15.06398949,.0001164,53.0554,286.1740,86.1392,273.9730,0,U,45660,999,22634,.56081E-3,.8081E-4,0
STARLINK-1444,2020-035E,2024-07-07T10:39:42.673824,15.21073110,.0002851,53.0538,274.9120,238.1531,121.9187,0,U,45661,999,22691,.20475E-2,.46044E-3,0
STARLINK-1445,2020-035F,2024-07-06T14:26:55.364352,15.06394698,.0001204,53.0553,289.8977,77.5747,282.5376,0,U,45662,999,22626,.36779E-3,.52E-4,0
STARLINK-1446,2020-035G,2024-07-07T06:27:37.815552,15.06401119,.0001399,53.0547,286.9034,87.8833,272.2316,0,U,45663,999,22631,.10567E-2,.15493E-3,0
STARLINK-1448,2020-035J,2024-07-07T10:26:28.078080,15.06396970,.0001273,53.0555,286.1603,94.3145,265.7990,0,U,45665,999,22634,.45525E-3,.6505E-4,0
STARLINK-1449,2020-035K,2024-07-08T05:01:07.122144,15.20810165,.0003462,53.0507,270.5560,202.3872,157.6973,0,U,45666,999,22663,.96394E-3,.21265E-3,0
STARLINK-1450,2020-035L,2024-07-07T10:31:28.369056,15.75541634,.0005674,53.0478,242.6702,20.0184,340.1056,0,U,45667,999,22735,.42734E-3,.66317E-3,0
STARLINK-1451,2020-035M,2024-07-08T05:38:18.631104,15.06398745,.0001294,53.0538,282.8871,83.1553,276.9583,0,U,45668,999,22646,.27474E-3,.3813E-4,0
STARLINK-1452,2020-035N,2024-07-07T14:09:23.975712,15.06405862,.0001508,53.0563,285.4654,84.9810,275.1351,0,U,45669,999,22677,.8153E-3,.11885E-3,0
STARLINK-1453,2020-035P,2024-07-07T10:46:22.794816,15.06399043,.0001512,53.0551,256.0968,82.9942,277.1219,0,U,45670,999,22706,.11556E-3,.144E-4,0
STARLINK-1454,2020-035Q,2024-07-07T14:14:42.284544,15.06414299,.0001222,53.0540,285.4473,84.3939,275.7190,0,U,45671,999,22676,.10744E-2,.15764E-3,0
STARLINK-1455,2020-035R,2024-07-07T22:00:00.999936,15.23634867,.0001222,53.0506,253.5516,101.1783,26.3586,0,U,45672,999,22683,.51987E-1,.1371393E-1,0
STARLINK-1456,2020-035S,2024-07-07T09:49:19.764192,15.06412203,.0001249,53.0550,286.2745,82.5048,277.6082,0,U,45673,999,22634,.10111E-2,.14816E-3,0
STARLINK-1457,2020-035T,2024-07-07T09:59:54.878496,15.06424956,.0001561,53.0553,286.2419,92.9727,267.1440,0,U,45674,999,22635,.10231E-2,.15001E-3,0
STARLINK-1458,2020-035U,2024-07-07T00:10:48.625536,15.06342968,.0000881,53.0554,288.0781,109.0885,251.0199,0,U,45675,999,22665,-.3301E-3,-.5187E-4,0
STARLINK-1460,2020-035V,2024-07-07T13:48:10.346400,15.06401120,.0001334,53.0548,285.5280,90.7711,269.3431,0,U,45676,999,22673,.97192E-3,.14225E-3,0
STARLINK-1392,2020-035W,2024-07-07T15:39:37.597536,15.06412023,.0001252,53.0547,285.1819,88.7366,271.3767,0,U,45677,999,22637,.947E-3,.13857E-3,0
STARLINK-1393,2020-035X,2024-07-07T12:19:16.006944,15.06410113,.0001296,53.0541,275.8069,81.9652,278.1484,0,U,45678,999,22649,.95658E-3,.13999E-3,0
STARLINK-1394,2020-035Y,2024-07-07T12:24:34.295904,15.06405721,.0001268,53.0551,275.7905,87.7158,272.3976,0,U,45679,999,22650,.46074E-3,.6589E-4,0
STARLINK-1395,2020-035Z,2024-07-07T12:35:10.599936,15.06407117,.0001359,53.0554,275.7603,88.7614,271.3530,0,U,45680,999,22649,.18749E-3,.2513E-4,0
STARLINK-1397,2020-035AB,2024-07-07T12:40:29.164512,15.06409624,.0001432,53.0551,275.7424,90.5714,269.5439,0,U,45682,999,22649,.44587E-3,.6368E-4,0
STARLINK-1399,2020-035AC,2024-07-07T12:13:56.615520,15.06411268,.000126,53.0544,275.8234,87.8654,272.2479,0,U,45683,999,22649,.89998E-3,.13153E-3,0
STARLINK-1401,2020-035AD,2024-07-07T12:02:15.704160,15.33759561,.0000471,53.0508,233.3604,221.7849,138.3116,0,U,45684,999,22710,.46007E-3,.1489E-3,0
STARLINK-1402,2020-035AE,2024-07-07T13:08:53.050272,15.06395471,.000135,53.0548,270.0728,88.1641,271.9502,0,U,45685,999,22658,.50803E-3,.7293E-4,0
STARLINK-1404,2020-035AF,2024-07-07T11:26:10.651488,15.06407959,.000126,53.0539,275.9726,96.3724,263.7409,0,U,45686,999,22649,.53029E-3,.7628E-4,0
STARLINK-1408,2020-035AH,2024-07-07T07:44:25.953504,15.37672924,.0006695,53.0770,202.8252,325.8602,34.1970,0,U,45688,999,22794,.17548E-2,.66092E-3,0
STARLINK-1413,2020-035AJ,2024-07-07T23:01:30.031104,15.06405926,.0001343,53.0548,273.8051,76.7859,283.3280,0,U,45689,999,22656,.21634E-3,.2943E-4,0
STARLINK-1414,2020-035AK,2024-07-07T12:29:54.841632,15.06410011,.0001257,53.0547,275.9961,87.8862,272.2271,0,U,45690,999,22643,.49443E-3,.7093E-4,0
STARLINK-1415,2020-035AL,2024-07-08T00:00:00.999648,15.83682930,.0010169,53.0470,234.7363,9.6696,84.4084,0,U,45691,999,22751,.86546E-3,.199258E-2,0
STARLINK-1416,2020-035AM,2024-07-07T12:34:36.674112,15.24722915,.0001112,53.0540,273.4993,84.3047,275.8077,0,U,45692,999,22653,.48911E-4,.888E-5,0
STARLINK-1417,2020-035AN,2024-07-07T11:47:25.154304,15.06422874,.0001044,53.0548,275.9096,74.4657,285.6448,0,U,45693,999,22649,.59359E-3,.8576E-4,0
STARLINK-1420,2020-035AQ,2024-07-07T11:48:41.778144,15.06401685,.0001379,53.0542,255.8938,93.4052,266.7095,0,U,45695,999,22677,.10882E-3,.134E-4,0
STARLINK-1422,2020-035AR,2024-07-08T05:34:16.553856,15.06401792,.000143,53.0546,272.5808,85.4233,274.6919,0,U,45696,999,22660,.33637E-3,.4732E-4,0
STARLINK-1351,2020-035AS,2024-07-07T09:53:17.683872,15.06399522,.0001178,53.0522,256.2617,88.3095,271.8029,0,U,45697,999,22676,.47576E-4,.427E-5,0
STARLINK-1370,2020-035AT,2024-07-08T00:00:00.999648,15.89766387,.0001657,53.0440,203.2633,57.2484,122.4187,0,U,45698,999,22756,.8224E-3,.255947E-2,0
STARLINK-1398,2020-035AU,2024-07-07T10:56:59.451360,15.06402086,.000133,53.0540,256.0639,83.4206,276.6934,0,U,45699,999,22681,.15625E-3,.2047E-4,0
STARLINK-1400,2020-035AV,2024-07-08T04:22:37.255296,15.06401502,.0001277,53.0532,252.8028,82.6584,277.4551,0,U,45700,999,22687,.29661E-3,.4139E-4,0
STARLINK-1403,2020-035AW,2024-07-07T09:58:35.836320,15.06401596,.0001139,53.0532,256.2417,76.8089,283.3027,0,U,45701,999,22676,.27781E-4,.132E-5,0
STARLINK-1405,2020-035AX,2024-07-07T11:07:35.657760,15.06404088,.0001115,53.0541,256.0304,101.2124,258.8990,0,U,45702,999,22716,.14046E-3,.1812E-4,0
STARLINK-1407,2020-035AY,2024-07-07T11:02:17.697120,15.06402724,.000135,53.0554,256.0468,88.9022,271.2122,0,U,45703,999,22676,.73129E-4,.808E-5,0
STARLINK-1409,2020-035AZ,2024-07-08T00:00:00.999648,15.87872649,.0010316,53.0443,223.6442,17.2296,228.8977,0,U,45704,999,22726,.89056E-3,.252923E-2,0
STARLINK-1411,2020-035BB,2024-07-08T04:01:23.692512,15.06403847,.0001214,53.0531,252.8692,74.8692,285.2431,0,U,45706,999,22687,.20639E-3,.2794E-4,0
STARLINK-1412,2020-035BC,2024-07-08T03:56:04.190496,15.06427712,.0001057,53.0520,252.8890,92.8355,267.2755,0,U,45707,999,22687,.10196E-2,.14949E-3,0
STARLINK-1418,2020-035BD,2024-07-08T04:54:27.468576,15.06393993,.0001384,53.0563,252.7040,87.3940,272.7207,0,U,45708,999,22688,.51652E-4,.488E-5,0
STARLINK-1421,2020-035BE,2024-07-07T10:34:03.247968,15.75730544,.0005584,53.0456,214.0196,34.7553,325.3830,0,U,45709,999,22772,.73797E-3,.11664E-2,0
STARLINK-1423,2020-035BF,2024-07-08T04:06:41.648832,15.06406493,.0001308,53.0527,252.8537,79.6069,280.5067,0,U,45710,999,22687,.17969E-3,.2396E-4,0
STARLINK-1433,2020-035BG,2024-07-07T10:09:13.010400,15.06396822,.0001262,53.0533,256.2157,94.4894,265.6239,0,U,45711,999,22716,.58817E-4,.595E-5,0
STARLINK-1434,2020-035BH,2024-07-07T11:39:27.172224,15.06398358,.000122,53.0550,255.9344,93.3932,266.7196,0,U,45712,999,22677,.73244E-4,.81E-5,0
STARLINK-1437,2020-035BK,2024-07-07T09:47:14.356320,15.78905190,.0008374,53.0482,200.3735,45.4568,314.7135,0,U,45714,999,22795,.5762E-3,.104776E-2,0
STARLINK-1461,2020-038A,2024-07-07T22:00:00.999936,15.77438702,.0003266,53.0444,60.9209,240.6424,352.3623,0,U,45730,999,22586,.66828E-3,.11377E-2,0
STARLINK-1465,2020-038B,2024-07-08T01:16:50.421504,15.06407306,.0001382,53.0540,93.3813,80.2675,279.8470,0,U,45731,999,22527,.11448E-2,.16815E-3,0
STARLINK-1466,2020-038C,2024-07-07T19:32:31.543008,15.73824855,.0003335,53.0526,51.4162,251.7947,108.2708,0,U,45732,999,22599,.70778E-3,.102699E-2,0
STARLINK-1467,2020-038D,2024-07-07T19:42:20.111040,15.42923011,.0007708,53.0669,20.4187,120.5274,239.6492,0,U,45733,999,22644,.29349E-2,.13302E-2,0
STARLINK-1468,2020-038E,2024-07-07T20:02:11.700960,15.35579159,.0005952,53.0719,37.4627,49.2052,310.9466,0,U,45734,999,22620,.26761E-2,.94735E-3,0
STARLINK-1471,2020-038F,2024-07-08T03:13:37.082208,15.06411329,.0001675,53.0543,93.0153,98.4452,261.6727,0,U,45735,999,22543,.12183E-2,.17917E-3,0
STARLINK-1474,2020-038J,2024-07-07T22:11:04.535520,15.06405613,.0001399,53.0538,93.9610,89.2595,270.8554,0,U,45738,999,22540,.11298E-2,.16589E-3,0
